[{"OBJECT_NAME":"SL-14 R/B","OBJECT_ID":"1986-006B","EPOCH":"2026-03-08T21:57:09.942624","MEAN_MOTION":14.86813778,"ECCENTRICITY":0.00750573,"INCLINATION":82.5233,"RA_OF_ASC_NODE":260.4668,"ARG_OF_PERICENTER":275.4183,"MEAN_ANOMALY":83.8474,"EPHEMERIS_TYPE":0,"CLASSIFICATION_TYPE":"U","NORAD_CAT_ID":16496,"ELEMENT_SET_NO":999,"REV_AT_EPOCH":14909,"BSTAR":8.5547375e-5,"MEAN_MOTION_DOT":8.27e-6,"MEAN_MOTION_DDOT":0},{"OBJECT_NAME":"COSMOS 1743","OBJECT_ID":"1986-034A","EPOCH":"2026-03-09T00:00:00.477792","MEAN_MOTION":15.58496631,"ECCENTRICITY":0.00016761,"INCLINATION":82.5296,"RA_OF_ASC_NODE":74.5547,"ARG_OF_PERICENTER":300.6943,"MEAN_ANOMALY":59.4148,"EPHEMERIS_TYPE":0,"CLASSIFICATION_TYPE":"U","NORAD_CAT_ID":16719,"ELEMENT_SET_NO":999,"REV_AT_EPOCH":18014,"BSTAR":0.00050265435,"MEAN_MOTION_DOT":0.00038498,"MEAN_MOTION_DDOT":0},{"OBJECT_NAME":"SL-14 R/B","OBJECT_ID":"1986-046B","EPOCH":"2026-03-08T23:58:39.317088","MEAN_MOTION":14.8558964,"ECCENTRICITY":0.00219169,"INCLINATION":82.4782,"RA_OF_ASC_NODE":80.8345,"ARG_OF_PERICENTER":227.7734,"MEAN_ANOMALY":132.1623,"EPHEMERIS_TYPE":0,"CLASSIFICATION_TYPE":"U","NORAD_CAT_ID":16792,"ELEMENT_SET_NO":999,"REV_AT_EPOCH":12630,"BSTAR":6.5398027e-5,"MEAN_MOTION_DOT":5.92e-6,"MEAN_MOTION_DDOT":0},{"OBJECT_NAME":"SL-14 R/B","OBJECT_ID":"1986-055B","EPOCH":"2026-03-08T16:03:11.619072","MEAN_MOTION":14.85641915,"ECCENTRICITY":0.00182693,"INCLINATION":82.5204,"RA_OF_ASC_NODE":127.6338,"ARG_OF_PERICENTER":340.0349,"MEAN_ANOMALY":139.9736,"EPHEMERIS_TYPE":0,"CLASSIFICATION_TYPE":"U","NORAD_CAT_ID":16882,"ELEMENT_SET_NO":999,"REV_AT_EPOCH":11921,"BSTAR":6.6738464e-5,"MEAN_MOTION_DOT":6.03e-6,"MEAN_MOTION_DDOT":0},{"OBJECT_NAME":"AJISAI (EGS)","OBJECT_ID":"1986-061A","EPOCH":"2026-03-08T23:35:31.695072","MEAN_MOTION":12.44515667,"ECCENTRICITY":0.00112645,"INCLINATION":50.008,"RA_OF_ASC_NODE":95.5209,"ARG_OF_PERICENTER":285.1783,"MEAN_ANOMALY":100.5598,"EPHEMERIS_TYPE":0,"CLASSIFICATION_TYPE":"U","NORAD_CAT_ID":16908,"ELEMENT_SET_NO":999,"REV_AT_EPOCH":46791,"BSTAR":-3.107832e-5,"MEAN_MOTION_DOT":-1.02e-6,"MEAN_MOTION_DDOT":0},{"OBJECT_NAME":"SL-14 R/B","OBJECT_ID":"1987-024B","EPOCH":"2026-03-08T13:28:25.465440","MEAN_MOTION":14.86131102,"ECCENTRICITY":0.00166758,"INCLINATION":82.5248,"RA_OF_ASC_NODE":93.8245,"ARG_OF_PERICENTER":264.0307,"MEAN_ANOMALY":95.9009,"EPHEMERIS_TYPE":0,"CLASSIFICATION_TYPE":"U","NORAD_CAT_ID":17567,"ELEMENT_SET_NO":999,"REV_AT_EPOCH":8796,"BSTAR":6.77601e-5,"MEAN_MOTION_DOT":6.19e-6,"MEAN_MOTION_DDOT":0},{"OBJECT_NAME":"COSMOS 1833","OBJECT_ID":"1987-027A","EPOCH":"2026-03-08T22:33:36.979776","MEAN_MOTION":14.13055019,"ECCENTRICITY":0.00243094,"INCLINATION":70.9226,"RA_OF_ASC_NODE":327.5946,"ARG_OF_PERICENTER":215.5688,"MEAN_ANOMALY":144.3814,"EPHEMERIS_TYPE":0,"CLASSIFICATION_TYPE":"U","NORAD_CAT_ID":17589,"ELEMENT_SET_NO":999,"REV_AT_EPOCH":1021,"BSTAR":-6.277863e-5,"MEAN_MOTION_DOT":-1.66e-6,"MEAN_MOTION_DDOT":0},{"OBJECT_NAME":"SL-16 R/B","OBJECT_ID":"1987-027B","EPOCH":"2026-03-08T21:58:50.052576","MEAN_MOTION":14.17165806,"ECCENTRICITY":0.00034935,"INCLINATION":71.0011,"RA_OF_ASC_NODE":278.1262,"ARG_OF_PERICENTER":144.3878,"MEAN_ANOMALY":215.748,"EPHEMERIS_TYPE":0,"CLASSIFICATION_TYPE":"U","NORAD_CAT_ID":17590,"ELEMENT_SET_NO":999,"REV_AT_EPOCH":1523,"BSTAR":4.4680114e-5,"MEAN_MOTION_DOT":4.2e-7,"MEAN_MOTION_DDOT":0},{"OBJECT_NAME":"SL-14 R/B","OBJECT_ID":"1987-038B","EPOCH":"2026-03-08T16:34:21.824832","MEAN_MOTION":14.85368483,"ECCENTRICITY":0.0019598,"INCLINATION":82.5002,"RA_OF_ASC_NODE":297.7493,"ARG_OF_PERICENTER":163.6384,"MEAN_ANOMALY":196.5469,"EPHEMERIS_TYPE":0,"CLASSIFICATION_TYPE":"U","NORAD_CAT_ID":17912,"ELEMENT_SET_NO":999,"REV_AT_EPOCH":7908,"BSTAR":6.3281882e-5,"MEAN_MOTION_DOT":5.7e-6,"MEAN_MOTION_DDOT":0},{"OBJECT_NAME":"COSMOS 1844","OBJECT_ID":"1987-041A","EPOCH":"2026-03-08T23:25:24.619296","MEAN_MOTION":14.14552384,"ECCENTRICITY":0.00299803,"INCLINATION":70.8999,"RA_OF_ASC_NODE":35.6798,"ARG_OF_PERICENTER":18.7892,"MEAN_ANOMALY":341.4329,"EPHEMERIS_TYPE":0,"CLASSIFICATION_TYPE":"U","NORAD_CAT_ID":17973,"ELEMENT_SET_NO":999,"REV_AT_EPOCH":348,"BSTAR":-5.3460089e-5,"MEAN_MOTION_DOT":-1.51e-6,"MEAN_MOTION_DDOT":0},{"OBJECT_NAME":"SL-14 R/B","OBJECT_ID":"1987-055B","EPOCH":"2026-03-08T20:52:21.651456","MEAN_MOTION":14.85628499,"ECCENTRICITY":0.00212227,"INCLINATION":82.503,"RA_OF_ASC_NODE":349.8039,"ARG_OF_PERICENTER":20.4844,"MEAN_ANOMALY":339.7218,"EPHEMERIS_TYPE":0,"CLASSIFICATION_TYPE":"U","NORAD_CAT_ID":18153,"ELEMENT_SET_NO":999,"REV_AT_EPOCH":6981,"BSTAR":8.2906774e-5,"MEAN_MOTION_DOT":7.45e-6,"MEAN_MOTION_DDOT":0},{"OBJECT_NAME":"COSMOS 1867","OBJECT_ID":"1987-060A","EPOCH":"2026-03-08T22:51:13.572288","MEAN_MOTION":14.31502907,"ECCENTRICITY":0.00144856,"INCLINATION":65.0114,"RA_OF_ASC_NODE":308.7709,"ARG_OF_PERICENTER":278.6095,"MEAN_ANOMALY":81.3348,"EPHEMERIS_TYPE":0,"CLASSIFICATION_TYPE":"U","NORAD_CAT_ID":18187,"ELEMENT_SET_NO":999,"REV_AT_EPOCH":1983,"BSTAR":3.5508196e-5,"MEAN_MOTION_DOT":-6.0e-8,"MEAN_MOTION_DDOT":0},{"OBJECT_NAME":"SL-14 R/B","OBJECT_ID":"1988-001B","EPOCH":"2026-03-08T20:45:30.976704","MEAN_MOTION":14.85526704,"ECCENTRICITY":0.00168117,"INCLINATION":82.5152,"RA_OF_ASC_NODE":196.1355,"ARG_OF_PERICENTER":238.6952,"MEAN_ANOMALY":121.2619,"EPHEMERIS_TYPE":0,"CLASSIFICATION_TYPE":"U","NORAD_CAT_ID":18749,"ELEMENT_SET_NO":999,"REV_AT_EPOCH":4190,"BSTAR":8.5494913e-5,"MEAN_MOTION_DOT":7.64e-6,"MEAN_MOTION_DDOT":0},{"OBJECT_NAME":"COSMOS 1933","OBJECT_ID":"1988-020A","EPOCH":"2026-03-08T22:23:45.817152","MEAN_MOTION":15.1797457,"ECCENTRICITY":0.00037835,"INCLINATION":82.5099,"RA_OF_ASC_NODE":251.6602,"ARG_OF_PERICENTER":183.0428,"MEAN_ANOMALY":177.0783,"EPHEMERIS_TYPE":0,"CLASSIFICATION_TYPE":"U","NORAD_CAT_ID":18958,"ELEMENT_SET_NO":999,"REV_AT_EPOCH":5011,"BSTAR":0.0002893792,"MEAN_MOTION_DOT":5.908e-5,"MEAN_MOTION_DDOT":0},{"OBJECT_NAME":"SL-3 R/B","OBJECT_ID":"1988-032B","EPOCH":"2026-03-08T22:37:14.462400","MEAN_MOTION":15.19901611,"ECCENTRICITY":0.00243268,"INCLINATION":97.5197,"RA_OF_ASC_NODE":51.1961,"ARG_OF_PERICENTER":234.2877,"MEAN_ANOMALY":125.6094,"EPHEMERIS_TYPE":0,"CLASSIFICATION_TYPE":"U","NORAD_CAT_ID":19046,"ELEMENT_SET_NO":999,"REV_AT_EPOCH":5199,"BSTAR":0.00033834118,"MEAN_MOTION_DOT":7.254e-5,"MEAN_MOTION_DDOT":0},{"OBJECT_NAME":"SL-16 R/B","OBJECT_ID":"1988-039B","EPOCH":"2026-03-08T23:51:06.765984","MEAN_MOTION":14.19615425,"ECCENTRICITY":0.00227415,"INCLINATION":71.0133,"RA_OF_ASC_NODE":70.019,"ARG_OF_PERICENTER":335.3401,"MEAN_ANOMALY":24.6635,"EPHEMERIS_TYPE":0,"CLASSIFICATION_TYPE":"U","NORAD_CAT_ID":19120,"ELEMENT_SET_NO":999,"REV_AT_EPOCH":95828,"BSTAR":-3.3778068e-5,"MEAN_MOTION_DOT":-1.2e-6,"MEAN_MOTION_DDOT":0},{"OBJECT_NAME":"COSMOS 1953","OBJECT_ID":"1988-050A","EPOCH":"2026-03-08T17:01:08.329152","MEAN_MOTION":15.28509736,"ECCENTRICITY":0.00124369,"INCLINATION":82.5103,"RA_OF_ASC_NODE":159.2329,"ARG_OF_PERICENTER":125.7008,"MEAN_ANOMALY":234.5391,"EPHEMERIS_TYPE":0,"CLASSIFICATION_TYPE":"U","NORAD_CAT_ID":19210,"ELEMENT_SET_NO":999,"REV_AT_EPOCH":3763,"BSTAR":0.00042199429,"MEAN_MOTION_DOT":0.00011767,"MEAN_MOTION_DDOT":0}]
