SL-14 R/B               
1 16496U 86006B   26067.91469841  .00000827  00000+0  85547-4 0  9998
2 16496  82.5233 260.4668 0075057 275.4183  83.8474 14.86813778149097
COSMOS 1743             
1 16719U 86034A   26068.00000553  .00038498  00000+0  50265-3 0  9992
2 16719  82.5296  74.5547 0001676 300.6943  59.4148 15.58496631180148
SL-14 R/B               
1 16792U 86046B   26067.99906617  .00000592  00000+0  65398-4 0  9997
2 16792  82.4782  80.8345 0021916 227.7734 132.1623 14.85589640126307
SL-14 R/B               
1 16882U 86055B   26067.66888448  .00000603  00000+0  66738-4 0  9994
2 16882  82.5204 127.6338 0018269 340.0349 139.9736 14.85641915119213
AJISAI (EGS)            
1 16908U 86061A   26067.98300573 -.00000102  00000+0 -31078-4 0  9998
2 16908  50.0080  95.5209 0011264 285.1783 100.5598 12.44515667467913
SL-14 R/B               
1 17567U 87024B   26067.56140585  .00000619  00000+0  67760-4 0  9997
2 17567  82.5248  93.8245 0016675 264.0307  95.9009 14.86131102 87964
COSMOS 1833             
1 17589U 87027A   26067.94001134 -.00000166  00000+0 -62779-4 0  9996
2 17589  70.9226 327.5946 0024309 215.5688 144.3814 14.13055019 10215
SL-16 R/B               
1 17590U 87027B   26067.91585709  .00000042  00000+0  44680-4 0  9992
2 17590  71.0011 278.1262 0003493 144.3878 215.7480 14.17165806 15233
SL-14 R/B               
1 17912U 87038B   26067.69053038  .00000570  00000+0  63282-4 0  9997
2 17912  82.5002 297.7493 0019598 163.6384 196.5469 14.85368483 79087
COSMOS 1844             
1 17973U 87041A   26067.97597939 -.00000151  00000+0 -53460-4 0  9996
2 17973  70.8999  35.6798 0029980  18.7892 341.4329 14.14552384  3480
SL-14 R/B               
1 18153U 87055B   26067.86969504  .00000745  00000+0  82907-4 0  9996
2 18153  82.5030 349.8039 0021222  20.4844 339.7218 14.85628499 69818
COSMOS 1867             
1 18187U 87060A   26067.95224042 -.00000006  00000+0  35508-4 0  9996
2 18187  65.0114 308.7709 0014485 278.6095  81.3348 14.31502907 19837
SL-14 R/B               
1 18749U 88001B   26067.86494186  .00000764  00000+0  85495-4 0  9994
2 18749  82.5152 196.1355 0016811 238.6952 121.2619 14.85526704 41904
COSMOS 1933             
1 18958U 88020A   26067.93316918  .00005908  00000+0  28938-3 0  9994
2 18958  82.5099 251.6602 0003783 183.0428 177.0783 15.17974570 50111
SL-3 R/B                
1 19046U 88032B   26067.94252850  .00007254  00000+0  33834-3 0  9998
2 19046  97.5197  51.1961 0024326 234.2877 125.6094 15.19901611 51998
SL-16 R/B               
1 19120U 88039B   26067.99382831 -.00000120  00000+0 -33778-4 0  9991
2 19120  71.0133  70.0190 0022741 335.3401  24.6635 14.19615425958288
COSMOS 1953             
1 19210U 88050A   26067.70912418  .00011767  00000+0  42199-3 0  9996
2 19210  82.5103 159.2329 0012436 125.7008 234.5391 15.28509736 37636
